{
  "type": "FeatureCollection",
  "features": [
    {
      "type": "Feature",
      "properties": {
        "norad_id": 30546,
        "name": "FENGYUN 1C DEB",
        "group": "fengyun-1c-debris",
        "lat": -31.050390303397684,
        "lon": 10.045518874755622,
        "alt_km": 556.2364466915715,
        "timestamp": "2025-12-06T05:40:09.519570+00:00",
        "meta_object_name": "FENGYUN 1C DEB",
        "meta_object_id": "1999-025AKL",
        "meta_epoch": "2025-12-05T03:27:46.870272",
        "meta_mean_motion": 14.86961234,
        "meta_eccentricity": 0.00923661,
        "meta_inclination": 98.9086,
        "meta_ra_of_asc_node": 194.2407,
        "meta_arg_of_pericenter": 186.8679,
        "meta_mean_anomaly": 302.2476,
        "meta_ephemeris_type": 0,
        "meta_classification_type": "U",
        "meta_norad_cat_id": 30546,
        "meta_element_set_no": 999,
        "meta_rev_at_epoch": 344,
        "meta_bstar": 0.0018286466,
        "meta_mean_motion_dot": 0.00017656,
        "meta_mean_motion_ddot": 0,
        "tle_line1": "1 30546U 99025AKL 25339.14429248  .00017656  00000+0  18286-2 0  9990",
        "tle_line2": "2 30546  98.9086 194.2407 0092366 186.8679 302.2476 14.86961234  3447"
      },
      "geometry": {
        "type": "Point",
        "coordinates": [
          10.045518874755622,
          -31.050390303397684
        ]
      }
    },
    {
      "type": "Feature",
      "properties": {
        "norad_id": 30547,
        "name": "FENGYUN 1C DEB",
        "group": "fengyun-1c-debris",
        "lat": -1.020180503205797,
        "lon": -176.8409741732083,
        "alt_km": 804.8262583805263,
        "timestamp": "2025-12-06T05:40:09.519586+00:00",
        "meta_object_name": "FENGYUN 1C DEB",
        "meta_object_id": "1999-025AKM",
        "meta_epoch": "2025-12-03T12:47:36.097152",
        "meta_mean_motion": 14.37722491,
        "meta_eccentricity": 0.00950099,
        "meta_inclination": 98.9028,
        "meta_ra_of_asc_node": 180.2003,
        "meta_arg_of_pericenter": 244.8086,
        "meta_mean_anomaly": 170.2445,
        "meta_ephemeris_type": 0,
        "meta_classification_type": "U",
        "meta_norad_cat_id": 30547,
        "meta_element_set_no": 999,
        "meta_rev_at_epoch": 98590,
        "meta_bstar": 0.00044097386,
        "meta_mean_motion_dot": 1.347e-05,
        "meta_mean_motion_ddot": 0,
        "tle_line1": "1 30547U 99025AKM 25337.53305668  .00001347  00000+0  44097-3 0  9991",
        "tle_line2": "2 30547  98.9028 180.2003 0095009 244.8086 170.2445 14.37722491985900"
      },
      "geometry": {
        "type": "Point",
        "coordinates": [
          -176.8409741732083,
          -1.020180503205797
        ]
      }
    },
    {
      "type": "Feature",
      "properties": {
        "norad_id": 30548,
        "name": "FENGYUN 1C DEB",
        "group": "fengyun-1c-debris",
        "lat": 30.883311819265646,
        "lon": 62.870369583080155,
        "alt_km": 845.6959246507422,
        "timestamp": "2025-12-06T05:40:09.519597+00:00",
        "meta_object_name": "FENGYUN 1C DEB",
        "meta_object_id": "1999-025AKN",
        "meta_epoch": "2025-12-03T23:10:03.063072",
        "meta_mean_motion": 14.26739592,
        "meta_eccentricity": 0.00690991,
        "meta_inclination": 99.6818,
        "meta_ra_of_asc_node": 234.5003,
        "meta_arg_of_pericenter": 359.7892,
        "meta_mean_anomaly": 10.6493,
        "meta_ephemeris_type": 0,
        "meta_classification_type": "U",
        "meta_norad_cat_id": 30548,
        "meta_element_set_no": 999,
        "meta_rev_at_epoch": 13970,
        "meta_bstar": 0.0040659071,
        "meta_mean_motion_dot": 0.00010056,
        "meta_mean_motion_ddot": 0,
        "tle_line1": "1 30548U 99025AKN 25337.96531323  .00010056  00000+0  40659-2 0  9994",
        "tle_line2": "2 30548  99.6818 234.5003 0069099 359.7892  10.6493 14.26739592139707"
      },
      "geometry": {
        "type": "Point",
        "coordinates": [
          62.870369583080155,
          30.883311819265646
        ]
      }
    },
    {
      "type": "Feature",
      "properties": {
        "norad_id": 30549,
        "name": "FENGYUN 1C DEB",
        "group": "fengyun-1c-debris",
        "lat": -78.81597901183866,
        "lon": 150.13427988609618,
        "alt_km": 696.3076831654962,
        "timestamp": "2025-12-06T05:40:09.519609+00:00",
        "meta_object_name": "FENGYUN 1C DEB",
        "meta_object_id": "1999-025AKP",
        "meta_epoch": "2025-12-03T07:39:14.923872",
        "meta_mean_motion": 13.98584639,
        "meta_eccentricity": 0.0288262,
        "meta_inclination": 98.4796,
        "meta_ra_of_asc_node": 98.4482,
        "meta_arg_of_pericenter": 283.4344,
        "meta_mean_anomaly": 73.4847,
        "meta_ephemeris_type": 0,
        "meta_classification_type": "U",
        "meta_norad_cat_id": 30549,
        "meta_element_set_no": 999,
        "meta_rev_at_epoch": 95162,
        "meta_bstar": 0.0024216,
        "meta_mean_motion_dot": 4.917e-05,
        "meta_mean_motion_ddot": 0,
        "tle_line1": "1 30549U 99025AKP 25337.31892273  .00004917  00000+0  24216-2 0  9998",
        "tle_line2": "2 30549  98.4796  98.4482 0288262 283.4344  73.4847 13.98584639951629"
      },
      "geometry": {
        "type": "Point",
        "coordinates": [
          150.13427988609618,
          -78.81597901183866
        ]
      }
    },
    {
      "type": "Feature",
      "properties": {
        "norad_id": 30550,
        "name": "FENGYUN 1C DEB",
        "group": "fengyun-1c-debris",
        "lat": -9.01909772961658,
        "lon": -122.97964290054733,
        "alt_km": 810.6084550430196,
        "timestamp": "2025-12-06T05:40:09.519620+00:00",
        "meta_object_name": "FENGYUN 1C DEB",
        "meta_object_id": "1999-025AKQ",
        "meta_epoch": "2025-12-05T04:45:25.047648",
        "meta_mean_motion": 14.02288132,
        "meta_eccentricity": 0.01336407,
        "meta_inclination": 99.0534,
        "meta_ra_of_asc_node": 234.539,
        "meta_arg_of_pericenter": 318.0671,
        "meta_mean_anomaly": 194.7225,
        "meta_ephemeris_type": 0,
        "meta_classification_type": "U",
        "meta_norad_cat_id": 30550,
        "meta_element_set_no": 999,
        "meta_rev_at_epoch": 95289,
        "meta_bstar": 0.0056077104,
        "meta_mean_motion_dot": 9.262e-05,
        "meta_mean_motion_ddot": 0,
        "tle_line1": "1 30550U 99025AKQ 25339.19820657  .00009262  00000+0  56077-2 0  9993",
        "tle_line2": "2 30550  99.0534 234.5390 0133640 318.0671 194.7225 14.02288132952898"
      },
      "geometry": {
        "type": "Point",
        "coordinates": [
          -122.97964290054733,
          -9.01909772961658
        ]
      }
    },
    {
      "type": "Feature",
      "properties": {
        "norad_id": 30552,
        "name": "FENGYUN 1C DEB",
        "group": "fengyun-1c-debris",
        "lat": -35.92308056762343,
        "lon": -74.93275415142817,
        "alt_km": 711.2926567279055,
        "timestamp": "2025-12-06T05:40:09.519630+00:00",
        "meta_object_name": "FENGYUN 1C DEB",
        "meta_object_id": "1999-025AKS",
        "meta_epoch": "2025-12-02T08:12:40.902048",
        "meta_mean_motion": 14.54300423,
        "meta_eccentricity": 0.00141637,
        "meta_inclination": 98.8343,
        "meta_ra_of_asc_node": 107.4277,
        "meta_arg_of_pericenter": 280.0643,
        "meta_mean_anomaly": 79.8953,
        "meta_ephemeris_type": 0,
        "meta_classification_type": "U",
        "meta_norad_cat_id": 30552,
        "meta_element_set_no": 999,
        "meta_rev_at_epoch": 97501,
        "meta_bstar": 0.0039430765,
        "meta_mean_motion_dot": 0.00016739,
        "meta_mean_motion_ddot": 0,
        "tle_line1": "1 30552U 99025AKS 25336.34214007  .00016739  00000+0  39431-2 0  9997",
        "tle_line2": "2 30552  98.8343 107.4277 0014163 280.0643  79.8953 14.54300423975017"
      },
      "geometry": {
        "type": "Point",
        "coordinates": [
          -74.93275415142817,
          -35.92308056762343
        ]
      }
    },
    {
      "type": "Feature",
      "properties": {
        "norad_id": 30553,
        "name": "FENGYUN 1C DEB",
        "group": "fengyun-1c-debris",
        "lat": -45.364687666989134,
        "lon": -115.0374315545697,
        "alt_km": 653.2399607732759,
        "timestamp": "2025-12-06T05:40:09.519641+00:00",
        "meta_object_name": "FENGYUN 1C DEB",
        "meta_object_id": "1999-025AKT",
        "meta_epoch": "2025-12-04T18:22:59.923776",
        "meta_mean_motion": 14.71750827,
        "meta_eccentricity": 0.00215891,
        "meta_inclination": 99.1302,
        "meta_ra_of_asc_node": 72.6886,
        "meta_arg_of_pericenter": 174.4178,
        "meta_mean_anomaly": 185.7271,
        "meta_ephemeris_type": 0,
        "meta_classification_type": "U",
        "meta_norad_cat_id": 30553,
        "meta_element_set_no": 999,
        "meta_rev_at_epoch": 98356,
        "meta_bstar": 0.0080299955,
        "meta_mean_motion_dot": 0.00050606,
        "meta_mean_motion_ddot": 0,
        "tle_line1": "1 30553U 99025AKT 25338.76597134  .00050606  00000+0  80300-2 0  9993",
        "tle_line2": "2 30553  99.1302  72.6886 0021589 174.4178 185.7271 14.71750827983560"
      },
      "geometry": {
        "type": "Point",
        "coordinates": [
          -115.0374315545697,
          -45.364687666989134
        ]
      }
    }
  ]
}